GLOBALSTAR M094         
1 39074U 13005C   25105.93801918 -.00000092  00000+0  67526-4 0  9995
2 39074  51.9987  11.6453 0000901  93.7127 266.3843 12.62269634564517
GLOBALSTAR M096         
1 39075U 13005D   25105.87209809 -.00000105  00000+0 -80691-5 0  9995
2 39075  52.0080  60.3101 0000703  83.1526 276.9421 12.62270160563425
GLOBALSTAR M078         
1 39076U 13005E   25105.84528094 -.00000084  00000+0  10964-3 0  9992
2 39076  51.9852 144.9873 0001092  57.7483 302.3490 12.62261463562040
GLOBALSTAR M095         
1 39077U 13005F   25105.55516334 -.00000073  00000+0  16996-3 0  9994
2 39077  51.9778 143.1000 0000771  88.1330 271.9625 12.62269169561864
GLOBALSTAR M087         
1 52888U 22064A   25105.82334568 -.00000092  00000+0  63315-4 0  9990
2 52888  51.9789 283.6865 0000943  98.9177 261.1796 12.62270905137161
